STARLINK-4589           
1 53746U 22107AY  26014.64393285  .00000117  00000+0  25437-4 0  9993
2 53746  53.2182 146.7939 0001354  89.8469 270.2678 15.08837759186431
STARLINK-4612           
1 53750U 22107BC  26014.65867333  .00000287  00000+0  36091-4 0  9995
2 53750  53.2171 146.8844 0001124  91.7178 268.3943 15.08837424186447
STARLINK-4718           
1 53773U 22111A   26014.81504279  .00000481  00000+0  48313-4 0  9996
2 53773  53.2173 165.8994 0001067  85.3990 274.7124 15.08828003185712
STARLINK-4719           
1 53774U 22111B   26014.67887972  .00000313  00000+0  37728-4 0  9997
2 53774  53.2180 166.4708 0001223  86.3156 273.7976 15.08834562185553
STARLINK-4722           
1 53775U 22111C   26014.77551962  .00000045  00000+0  20924-4 0  9998
2 53775  53.2170 156.3844 0001068  88.1957 271.9157 15.08838316185550
STARLINK-4664           
1 53777U 22111E   26014.76815659 -.00000125  00000+0  10229-4 0  9992
2 53777  53.2178 156.3370 0001404  94.9787 265.1365 15.08831532185553
STARLINK-4709           
1 53778U 22111F   26014.79523348  .00000339  00000+0  39365-4 0  9995
2 53778  53.2174 160.7895 0001360  83.2590 276.8557 15.08840956185490
STARLINK-4706           
1 53779U 22111G   26014.76446741 -.00000586  00000+0 -18753-4 0  9998
2 53779  53.2185 156.3150 0001330  93.1409 266.9736 15.08837487185555
STARLINK-4678           
1 53780U 22111H   26014.77183233  .00000388  00000+0  42451-4 0  9995
2 53780  53.2164 156.3614 0001159  90.4698 269.6427 15.08837605185557
STARLINK-4462           
1 53781U 22111J   26014.68717083  .00000000  00000+0  18111-4 0  9999
2 53781  53.2173 156.5452 0001325  70.9983 289.1153 15.08841577185540
STARLINK-4679           
1 53782U 22111K   26014.69454338  .00000685  00000+0  61145-4 0  9996
2 53782  53.2169 156.5888 0001046  89.5186 270.5926 15.08832777185544
STARLINK-4536           
1 53783U 22111L   26014.67979795  .00000700  00000+0  62105-4 0  9999
2 53783  53.2176 156.5014 0001397  92.9208 267.1944 15.08835121185544
STARLINK-4687           
1 53784U 22111M   26014.55837648 -.00000017  00000+0  17034-4 0  9990
2 53784  53.2180 157.1616 0001208  89.6844 270.4287 15.08837122185523
STARLINK-4743           
1 53787U 22111Q   26014.67243343  .00001037  00000+0  83197-4 0  9994
2 53787  53.2179 156.4559 0001325  90.0747 270.0397 15.08842958185543
STARLINK-4666           
1 53789U 22111S   26014.79385558  .00027689  00000+0  17509-2 0  9997
2 53789  53.2160 155.7935 0001368  89.2797 270.8352 15.08841064185554
STARLINK-4734           
1 53790U 22111T   26014.60987601  .00000191  00000+0  30122-4 0  9993
2 53790  53.2165 156.7745 0001558  97.0125 263.1044 15.08834328185530
STARLINK-4739           
1 53792U 22111V   26014.78752737  .00000690  00000+0  61451-4 0  9997
2 53792  53.2179 156.4496 0001143  81.5664 278.5458 15.08835045185540
