[{"OBJECT_NAME":"STARLINK-4589","OBJECT_ID":"2022-107AY","EPOCH":"2026-01-14T15:27:15.798240","MEAN_MOTION":15.08837759,"ECCENTRICITY":0.0001354,"INCLINATION":53.2182,"RA_OF_ASC_NODE":146.7939,"ARG_OF_PERICENTER":89.8469,"MEAN_ANOMALY":270.2678,"EPHEMERIS_TYPE":0,"CLASSIFICATION_TYPE":"U","NORAD_CAT_ID":53746,"ELEMENT_SET_NO":999,"REV_AT_EPOCH":18643,"BSTAR":2.5437e-5,"MEAN_MOTION_DOT":1.17e-6,"MEAN_MOTION_DDOT":0},{"OBJECT_NAME":"STARLINK-4612","OBJECT_ID":"2022-107BC","EPOCH":"2026-01-14T15:48:29.375712","MEAN_MOTION":15.08837424,"ECCENTRICITY":0.0001124,"INCLINATION":53.2171,"RA_OF_ASC_NODE":146.8844,"ARG_OF_PERICENTER":91.7178,"MEAN_ANOMALY":268.3943,"EPHEMERIS_TYPE":0,"CLASSIFICATION_TYPE":"U","NORAD_CAT_ID":53750,"ELEMENT_SET_NO":999,"REV_AT_EPOCH":18644,"BSTAR":3.6091e-5,"MEAN_MOTION_DOT":2.87e-6,"MEAN_MOTION_DDOT":0},{"OBJECT_NAME":"STARLINK-4718","OBJECT_ID":"2022-111A","EPOCH":"2026-01-14T19:33:39.697056","MEAN_MOTION":15.08828003,"ECCENTRICITY":0.0001067,"INCLINATION":53.2173,"RA_OF_ASC_NODE":165.8994,"ARG_OF_PERICENTER":85.399,"MEAN_ANOMALY":274.7124,"EPHEMERIS_TYPE":0,"CLASSIFICATION_TYPE":"U","NORAD_CAT_ID":53773,"ELEMENT_SET_NO":999,"REV_AT_EPOCH":18571,"BSTAR":4.8313e-5,"MEAN_MOTION_DOT":4.81e-6,"MEAN_MOTION_DDOT":0},{"OBJECT_NAME":"STARLINK-4719","OBJECT_ID":"2022-111B","EPOCH":"2026-01-14T16:17:35.207808","MEAN_MOTION":15.08834562,"ECCENTRICITY":0.0001223,"INCLINATION":53.218,"RA_OF_ASC_NODE":166.4708,"ARG_OF_PERICENTER":86.3156,"MEAN_ANOMALY":273.7976,"EPHEMERIS_TYPE":0,"CLASSIFICATION_TYPE":"U","NORAD_CAT_ID":53774,"ELEMENT_SET_NO":999,"REV_AT_EPOCH":18555,"BSTAR":3.7728e-5,"MEAN_MOTION_DOT":3.13e-6,"MEAN_MOTION_DDOT":0},{"OBJECT_NAME":"STARLINK-4722","OBJECT_ID":"2022-111C","EPOCH":"2026-01-14T18:36:44.895168","MEAN_MOTION":15.08838316,"ECCENTRICITY":0.0001068,"INCLINATION":53.217,"RA_OF_ASC_NODE":156.3844,"ARG_OF_PERICENTER":88.1957,"MEAN_ANOMALY":271.9157,"EPHEMERIS_TYPE":0,"CLASSIFICATION_TYPE":"U","NORAD_CAT_ID":53775,"ELEMENT_SET_NO":999,"REV_AT_EPOCH":18555,"BSTAR":2.0924e-5,"MEAN_MOTION_DOT":4.5e-7,"MEAN_MOTION_DDOT":0},{"OBJECT_NAME":"STARLINK-4664","OBJECT_ID":"2022-111E","EPOCH":"2026-01-14T18:26:08.729376","MEAN_MOTION":15.08831532,"ECCENTRICITY":0.0001404,"INCLINATION":53.2178,"RA_OF_ASC_NODE":156.337,"ARG_OF_PERICENTER":94.9787,"MEAN_ANOMALY":265.1365,"EPHEMERIS_TYPE":0,"CLASSIFICATION_TYPE":"U","NORAD_CAT_ID":53777,"ELEMENT_SET_NO":999,"REV_AT_EPOCH":18555,"BSTAR":1.0229e-5,"MEAN_MOTION_DOT":-1.25e-6,"MEAN_MOTION_DDOT":0},{"OBJECT_NAME":"STARLINK-4709","OBJECT_ID":"2022-111F","EPOCH":"2026-01-14T19:05:08.172672","MEAN_MOTION":15.08840956,"ECCENTRICITY":0.000136,"INCLINATION":53.2174,"RA_OF_ASC_NODE":160.7895,"ARG_OF_PERICENTER":83.259,"MEAN_ANOMALY":276.8557,"EPHEMERIS_TYPE":0,"CLASSIFICATION_TYPE":"U","NORAD_CAT_ID":53778,"ELEMENT_SET_NO":999,"REV_AT_EPOCH":18549,"BSTAR":3.9365e-5,"MEAN_MOTION_DOT":3.39e-6,"MEAN_MOTION_DDOT":0},{"OBJECT_NAME":"STARLINK-4706","OBJECT_ID":"2022-111G","EPOCH":"2026-01-14T18:20:49.984224","MEAN_MOTION":15.08837487,"ECCENTRICITY":0.000133,"INCLINATION":53.2185,"RA_OF_ASC_NODE":156.315,"ARG_OF_PERICENTER":93.1409,"MEAN_ANOMALY":266.9736,"EPHEMERIS_TYPE":0,"CLASSIFICATION_TYPE":"U","NORAD_CAT_ID":53779,"ELEMENT_SET_NO":999,"REV_AT_EPOCH":18555,"BSTAR":-1.8753e-5,"MEAN_MOTION_DOT":-5.86e-6,"MEAN_MOTION_DDOT":0},{"OBJECT_NAME":"STARLINK-4678","OBJECT_ID":"2022-111H","EPOCH":"2026-01-14T18:31:26.313312","MEAN_MOTION":15.08837605,"ECCENTRICITY":0.0001159,"INCLINATION":53.2164,"RA_OF_ASC_NODE":156.3614,"ARG_OF_PERICENTER":90.4698,"MEAN_ANOMALY":269.6427,"EPHEMERIS_TYPE":0,"CLASSIFICATION_TYPE":"U","NORAD_CAT_ID":53780,"ELEMENT_SET_NO":999,"REV_AT_EPOCH":18555,"BSTAR":4.2451e-5,"MEAN_MOTION_DOT":3.88e-6,"MEAN_MOTION_DDOT":0},{"OBJECT_NAME":"STARLINK-4462","OBJECT_ID":"2022-111J","EPOCH":"2026-01-14T16:29:31.559712","MEAN_MOTION":15.08841577,"ECCENTRICITY":0.0001325,"INCLINATION":53.2173,"RA_OF_ASC_NODE":156.5452,"ARG_OF_PERICENTER":70.9983,"MEAN_ANOMALY":289.1153,"EPHEMERIS_TYPE":0,"CLASSIFICATION_TYPE":"U","NORAD_CAT_ID":53781,"ELEMENT_SET_NO":999,"REV_AT_EPOCH":18554,"BSTAR":1.8111e-5,"MEAN_MOTION_DOT":0,"MEAN_MOTION_DDOT":0},{"OBJECT_NAME":"STARLINK-4679","OBJECT_ID":"2022-111K","EPOCH":"2026-01-14T16:40:08.548032","MEAN_MOTION":15.08832777,"ECCENTRICITY":0.0001046,"INCLINATION":53.2169,"RA_OF_ASC_NODE":156.5888,"ARG_OF_PERICENTER":89.5186,"MEAN_ANOMALY":270.5926,"EPHEMERIS_TYPE":0,"CLASSIFICATION_TYPE":"U","NORAD_CAT_ID":53782,"ELEMENT_SET_NO":999,"REV_AT_EPOCH":18554,"BSTAR":6.1145e-5,"MEAN_MOTION_DOT":6.85e-6,"MEAN_MOTION_DDOT":0},{"OBJECT_NAME":"STARLINK-4536","OBJECT_ID":"2022-111L","EPOCH":"2026-01-14T16:18:54.542880","MEAN_MOTION":15.08835121,"ECCENTRICITY":0.0001397,"INCLINATION":53.2176,"RA_OF_ASC_NODE":156.5014,"ARG_OF_PERICENTER":92.9208,"MEAN_ANOMALY":267.1944,"EPHEMERIS_TYPE":0,"CLASSIFICATION_TYPE":"U","NORAD_CAT_ID":53783,"ELEMENT_SET_NO":999,"REV_AT_EPOCH":18554,"BSTAR":6.2105e-5,"MEAN_MOTION_DOT":7.0e-6,"MEAN_MOTION_DDOT":0},{"OBJECT_NAME":"STARLINK-4687","OBJECT_ID":"2022-111M","EPOCH":"2026-01-14T13:24:03.727872","MEAN_MOTION":15.08837122,"ECCENTRICITY":0.0001208,"INCLINATION":53.218,"RA_OF_ASC_NODE":157.1616,"ARG_OF_PERICENTER":89.6844,"MEAN_ANOMALY":270.4287,"EPHEMERIS_TYPE":0,"CLASSIFICATION_TYPE":"U","NORAD_CAT_ID":53784,"ELEMENT_SET_NO":999,"REV_AT_EPOCH":18552,"BSTAR":1.7034e-5,"MEAN_MOTION_DOT":-1.7e-7,"MEAN_MOTION_DDOT":0},{"OBJECT_NAME":"STARLINK-4743","OBJECT_ID":"2022-111Q","EPOCH":"2026-01-14T16:08:18.248352","MEAN_MOTION":15.08842958,"ECCENTRICITY":0.0001325,"INCLINATION":53.2179,"RA_OF_ASC_NODE":156.4559,"ARG_OF_PERICENTER":90.0747,"MEAN_ANOMALY":270.0397,"EPHEMERIS_TYPE":0,"CLASSIFICATION_TYPE":"U","NORAD_CAT_ID":53787,"ELEMENT_SET_NO":999,"REV_AT_EPOCH":18554,"BSTAR":8.3197e-5,"MEAN_MOTION_DOT":1.037e-5,"MEAN_MOTION_DDOT":0},{"OBJECT_NAME":"STARLINK-4666","OBJECT_ID":"2022-111S","EPOCH":"2026-01-14T19:03:09.122112","MEAN_MOTION":15.08841064,"ECCENTRICITY":0.0001368,"INCLINATION":53.216,"RA_OF_ASC_NODE":155.7935,"ARG_OF_PERICENTER":89.2797,"MEAN_ANOMALY":270.8352,"EPHEMERIS_TYPE":0,"CLASSIFICATION_TYPE":"U","NORAD_CAT_ID":53789,"ELEMENT_SET_NO":999,"REV_AT_EPOCH":18555,"BSTAR":0.0017509,"MEAN_MOTION_DOT":0.00027689,"MEAN_MOTION_DDOT":0},{"OBJECT_NAME":"STARLINK-4734","OBJECT_ID":"2022-111T","EPOCH":"2026-01-14T14:38:13.287264","MEAN_MOTION":15.08834328,"ECCENTRICITY":0.0001558,"INCLINATION":53.2165,"RA_OF_ASC_NODE":156.7745,"ARG_OF_PERICENTER":97.0125,"MEAN_ANOMALY":263.1044,"EPHEMERIS_TYPE":0,"CLASSIFICATION_TYPE":"U","NORAD_CAT_ID":53790,"ELEMENT_SET_NO":999,"REV_AT_EPOCH":18553,"BSTAR":3.0122e-5,"MEAN_MOTION_DOT":1.91e-6,"MEAN_MOTION_DDOT":0},{"OBJECT_NAME":"STARLINK-4739","OBJECT_ID":"2022-111V","EPOCH":"2026-01-14T18:54:02.364768","MEAN_MOTION":15.08835045,"ECCENTRICITY":0.0001143,"INCLINATION":53.2179,"RA_OF_ASC_NODE":156.4496,"ARG_OF_PERICENTER":81.5664,"MEAN_ANOMALY":278.5458,"EPHEMERIS_TYPE":0,"CLASSIFICATION_TYPE":"U","NORAD_CAT_ID":53792,"ELEMENT_SET_NO":999,"REV_AT_EPOCH":18554,"BSTAR":6.1451e-5,"MEAN_MOTION_DOT":6.9e-6,"MEAN_MOTION_DDOT":0}]
